COMMENT,ORIGINATOR,NORAD_CAT_ID,OBJECT_NAME,OBJECT_TYPE,CLASSIFICATION_TYPE,INTLDES,EPOCH,EPOCH_MICROSECONDS,MEAN_MOTION,ECCENTRICITY,INCLINATION,RA_OF_ASC_NODE,ARG_OF_PERICENTER,MEAN_ANOMALY,EPHEMERIS_TYPE,ELEMENT_SET_NO,REV_AT_EPOCH,BSTAR,MEAN_MOTION_DOT,MEAN_MOTION_DDOT,FILE,TLE_LINE0,TLE_LINE1,TLE_LINE2,OBJECT_ID,OBJECT_NUMBER,SEMIMAJOR_AXIS,PERIOD,APOGEE,PERIGEE,DECAYED
GENERATED VIA SPACETRACK.ORG API,18 SPCS,52365,STARLINK-3874,PAYLOAD,U,22045AL,2022-12-26 14:08:41,852256,15.08845108,0.0002579,53.2173,37.4075,30.8607,329.2536,0,999,3942,0.00041335,6.297e-05,0,3723127,0 STARLINK-3874,1 52365U 22045AL  22360.58937329  .00006297  00000-0  41335-3 0  9996,2 52365  53.2173  37.4075 0002579  30.8607 329.2536 15.08845108 39425,2022-045AL,52365,6917.865,95.437,541.514,537.946,0
GENERATED VIA SPACETRACK.ORG API,18 SPCS,52365,STARLINK-3874,PAYLOAD,U,22045AL,2022-12-26 14:08:41,852256,15.08845108,0.0002579,53.2173,37.4075,30.8607,329.2536,0,999,3942,0.00041335,6.297e-05,0,3723236,0 STARLINK-3874,1 52365U 22045AL  22360.58937329  .00006297  00000-0  41335-3 0  9996,2 52365  53.2173  37.4075 0002579  30.8607 329.2536 15.08845108 39425,2022-045AL,52365,6917.865,95.437,541.514,537.946,0
GENERATED VIA SPACETRACK.ORG API,18 SPCS,52365,STARLINK-3874,PAYLOAD,U,22045AL,2022-12-27 12:24:05,234400,15.08864088,0.0002995,53.218,33.2454,32.2022,327.9152,0,999,3956,0.00071983,0.00011194,0,3723863,0 STARLINK-3874,1 52365U 22045AL  22361.51672725  .00011194  00000-0  71983-3 0  9990,2 52365  53.2180  33.2454 0002995  32.2022 327.9152 15.08864088 39569,2022-045AL,52365,6917.807,95.436,541.744,537.6,0
GENERATED VIA SPACETRACK.ORG API,18 SPCS,52365,STARLINK-3874,PAYLOAD,U,22045AL,2022-12-27 18:45:37,587456,15.08860696,0.0003015,53.2178,32.0558,30.1417,329.9748,0,999,3960,0.00052799,8.13e-05,0,3724149,0 STARLINK-3874,1 52365U 22045AL  22361.78168504  .00008130  00000-0  52799-3 0  9994,2 52365  53.2178  32.0558 0003015  30.1417 329.9748 15.08860696 39606,2022-045AL,52365,6917.817,95.436,541.768,537.596,0
GENERATED VIA SPACETRACK.ORG API,18 SPCS,52365,STARLINK-3874,PAYLOAD,U,22045AL,2022-12-27 18:45:37,587456,15.08860696,0.0003015,53.2178,32.0558,30.1417,329.9748,0,999,3960,0.00052799,8.13e-05,0,3724219,0 STARLINK-3874,1 52365U 22045AL  22361.78168504  .00008130  00000-0  52799-3 0  9994,2 52365  53.2178  32.0558 0003015  30.1417 329.9748 15.08860696 39606,2022-045AL,52365,6917.817,95.436,541.768,537.596,0
GENERATED VIA SPACETRACK.ORG API,18 SPCS,52365,STARLINK-3874,PAYLOAD,U,22045AL,2022-12-29 10:30:16,899840,15.08819223,0.0002548,53.2184,24.6225,32.869,327.246,0,999,3985,-0.00034113,-5.711e-05,0,3725750,0 STARLINK-3874,1 52365U 22045AL  22363.43769560 -.00005711  00000-0 -34113-3 0  9991,2 52365  53.2184  24.6225 0002548  32.8690 327.2460 15.08819223 39852,2022-045AL,52365,6917.944,95.439,541.572,538.046,0
GENERATED VIA SPACETRACK.ORG API,18 SPCS,52365,STARLINK-3874,PAYLOAD,U,22045AL,2022-12-29 10:30:16,899840,15.08819223,0.0002548,53.2184,24.6225,32.869,327.246,0,999,3985,-0.00034113,-5.711e-05,0,3725790,0 STARLINK-3874,1 52365U 22045AL  22363.43769560 -.00005711  00000-0 -34113-3 0  9991,2 52365  53.2184  24.6225 0002548  32.8690 327.2460 15.08819223 39852,2022-045AL,52365,6917.944,95.439,541.572,538.046,0
GENERATED VIA SPACETRACK.ORG API,18 SPCS,52365,STARLINK-3874,PAYLOAD,U,22045AL,2022-12-30 08:45:40,663008,15.08839333,0.0001696,53.2193,20.4559,40.3082,319.8036,0,999,3999,0.00017786,2.544e-05,0,3726750,0 STARLINK-3874,1 52365U 22045AL  22364.36505397  .00002544  00000-0  17786-3 0  9996,2 52365  53.2193  20.4559 0001696  40.3082 319.8036 15.08839333 39993,2022-045AL,52365,6917.882,95.438,540.921,538.574,0
GENERATED VIA SPACETRACK.ORG API,18 SPCS,52365,STARLINK-3874,PAYLOAD,U,22045AL,2022-12-30 08:45:40,663008,15.08839333,0.0001696,53.2193,20.4559,40.3082,319.8036,0,999,3999,0.00017786,2.544e-05,0,3726810,0 STARLINK-3874,1 52365U 22045AL  22364.36505397  .00002544  00000-0  17786-3 0  9996,2 52365  53.2193  20.4559 0001696  40.3082 319.8036 15.08839333 39993,2022-045AL,52365,6917.882,95.438,540.921,538.574,0
GENERATED VIA SPACETRACK.ORG API,18 SPCS,52365,STARLINK-3874,PAYLOAD,U,22045AL,2022-12-31 08:36:27,322848,15.08853938,0.0002869,53.2175,15.9995,27.1795,332.9346,0,999,4014,0.00040769,6.209e-05,0,3727988,0 STARLINK-3874,1 52365U 22045AL  22365.35864957  .00006209  00000-0  40769-3 0  9995,2 52365  53.2175  15.9995 0002869  27.1795 332.9346 15.08853938 40149,2022-045AL,52365,6917.838,95.437,541.688,537.718,0
GENERATED VIA SPACETRACK.ORG API,18 SPCS,52365,STARLINK-3874,PAYLOAD,U,22045AL,2022-12-31 18:08:46,357440,15.08846714,0.0002818,53.2185,14.2142,27.6318,332.4824,0,999,4020,0.00022404,3.28e-05,0,3728053,0 STARLINK-3874,1 52365U 22045AL  22365.75609210  .00003280  00000-0  22404-3 0  9990,2 52365  53.2185  14.2142 0002818  27.6318 332.4824 15.08846714 40203,2022-045AL,52365,6917.86,95.437,541.674,537.775,0
GENERATED VIA SPACETRACK.ORG API,18 SPCS,52365,STARLINK-3874,PAYLOAD,U,22045AL,2022-12-31 18:08:46,357440,15.08846714,0.0002818,53.2185,14.2142,27.6318,332.4824,0,999,4020,0.00022404,3.28e-05,0,3728081,0 STARLINK-3874,1 52365U 22045AL  22365.75609210  .00003280  00000-0  22404-3 0  9990,2 52365  53.2185  14.2142 0002818  27.6318 332.4824 15.08846714 40203,2022-045AL,52365,6917.86,95.437,541.674,537.775,0
GENERATED VIA SPACETRACK.ORG API,18 SPCS,52365,STARLINK-3874,PAYLOAD,U,22045AL,2023-01-01 06:51:53,67168,15.08811744,0.0002838,53.219,11.8356,25.5993,334.5139,0,999,4028,-0.00038597,-6.422e-05,0,3728439,0 STARLINK-3874,1 52365U 22045AL  23001.28603087 -.00006422  00000-0 -38597-3 0  9995,2 52365  53.2190  11.8356 0002838  25.5993 334.5139 15.08811744 40282,2022-045AL,52365,6917.967,95.439,541.795,537.868,0
GENERATED VIA SPACETRACK.ORG API,18 SPCS,52365,STARLINK-3874,PAYLOAD,U,22045AL,2023-01-01 06:51:53,67168,15.08811744,0.0002838,53.219,11.8356,25.5993,334.5139,0,999,4028,-0.00038597,-6.422e-05,0,3728759,0 STARLINK-3874,1 52365U 22045AL  23001.28603087 -.00006422  00000-0 -38597-3 0  9995,2 52365  53.2190  11.8356 0002838  25.5993 334.5139 15.08811744 40282,2022-045AL,52365,6917.967,95.439,541.795,537.868,0
GENERATED VIA SPACETRACK.ORG API,18 SPCS,52365,STARLINK-3874,PAYLOAD,U,22045AL,2023-01-01 17:59:35,661120,15.08810943,0.0002951,53.2214,9.7546,25.2399,334.8737,0,999,4035,-0.00011634,-2.138e-05,0,3728952,0 STARLINK-3874,1 52365U 22045AL  23001.74971830 -.00002138  00000-0 -11634-3 0  9993,2 52365  53.2214   9.7546 0002951  25.2399 334.8737 15.08810943 40354,2022-045AL,52365,6917.969,95.439,541.876,537.793,0
GENERATED VIA SPACETRACK.ORG API,18 SPCS,52365,STARLINK-3874,PAYLOAD,U,22045AL,2023-01-02 00:21:07,436160,15.08822933,0.0002428,53.2199,8.5651,4.0928,356.0084,0,999,4039,-0.00032509,-5.456e-05,0,3729080,0 STARLINK-3874,1 52365U 22045AL  23002.01466940 -.00005456  00000-0 -32509-3 0  9995,2 52365  53.2199   8.5651 0002428   4.0928 356.0084 15.08822933 40399,2022-045AL,52365,6917.933,95.439,541.477,538.118,0
GENERATED VIA SPACETRACK.ORG API,18 SPCS,52365,STARLINK-3874,PAYLOAD,U,22045AL,2023-01-02 06:42:39,204288,15.08847474,0.0002803,53.2174,7.3746,29.8649,330.2502,0,999,4043,7.1467e-05,8.49e-06,0,3729302,0 STARLINK-3874,1 52365U 22045AL  23002.27962042  .00000849  00000-0  71467-4 0  9993,2 52365  53.2174   7.3746 0002803  29.8649 330.2502 15.08847474 40437,2022-045AL,52365,6917.858,95.437,541.662,537.783,0
GENERATED VIA SPACETRACK.ORG API,18 SPCS,52365,STARLINK-3874,PAYLOAD,U,22045AL,2023-01-02 09:53:25,14048,15.08854144,0.0002731,53.2184,6.7789,32.9773,327.139,0,999,4045,1.0257e-06,-2.72e-06,0,3729583,0 STARLINK-3874,1 52365U 22045AL  23002.41209507 -.00000272  00000-0  10257-5 0  9991,2 52365  53.2184   6.7789 0002731  32.9773 327.1390 15.08854144 40455,2022-045AL,52365,6917.837,95.437,541.591,537.813,0
GENERATED VIA SPACETRACK.ORG API,18 SPCS,52365,STARLINK-3874,PAYLOAD,U,22045AL,2023-01-02 09:53:25,14048,15.08854144,0.0002731,53.2184,6.7789,32.9773,327.139,0,999,4045,1.0257e-06,-2.72e-06,0,3729843,0 STARLINK-3874,1 52365U 22045AL  23002.41209507 -.00000272  00000-0  10257-5 0  9991,2 52365  53.2184   6.7789 0002731  32.9773 327.1390 15.08854144 40455,2022-045AL,52365,6917.837,95.437,541.591,537.813,0
GENERATED VIA SPACETRACK.ORG API,18 SPCS,52365,STARLINK-3874,PAYLOAD,U,22045AL,2023-01-03 06:33:26,649504,15.08838324,0.0002736,53.2183,2.9134,30.4548,329.6602,0,999,4058,9.6923e-05,1.254e-05,0,3730321,0 STARLINK-3874,1 52365U 22045AL  23003.27322511  .00001254  00000-0  96923-4 0  9990,2 52365  53.2183   2.9134 0002736  30.4548 329.6602 15.08838324 40583,2022-045AL,52365,6917.886,95.438,541.643,537.858,0
GENERATED VIA SPACETRACK.ORG API,18 SPCS,52365,STARLINK-3874,PAYLOAD,U,22045AL,2023-01-03 09:44:13,477056,15.08824334,0.0002958,53.2188,2.3197,30.5972,329.5192,0,999,4060,0.00030259,4.529e-05,0,3730626,0 STARLINK-3874,1 52365U 22045AL  23003.40571154  .00004529  00000-0  30259-3 0  9991,2 52365  53.2188   2.3197 0002958  30.5972 329.5192 15.08824334 40601,2022-045AL,52365,6917.928,95.439,541.84,537.747,0
GENERATED VIA SPACETRACK.ORG API,18 SPCS,52365,STARLINK-3874,PAYLOAD,U,22045AL,2023-01-03 09:44:13,477056,15.08824334,0.0002958,53.2188,2.3197,30.5972,329.5192,0,999,4060,0.00030259,4.529e-05,0,3730926,0 STARLINK-3874,1 52365U 22045AL  23003.40571154  .00004529  00000-0  30259-3 0  9991,2 52365  53.2188   2.3197 0002958  30.5972 329.5192 15.08824334 40601,2022-045AL,52365,6917.928,95.439,541.84,537.747,0
GENERATED VIA SPACETRACK.ORG API,18 SPCS,52365,STARLINK-3874,PAYLOAD,U,22045AL,2023-01-04 06:24:13,519296,15.08850376,0.0002802,53.2186,358.4538,28.6511,331.4635,0,999,4073,0.00010457,1.377e-05,0,3731379,0 STARLINK-3874,1 52365U 22045AL  23004.26682314  .00001377  00000-0  10457-3 0  9993,2 52365  53.2186 358.4538 0002802  28.6511 331.4635 15.08850376 40731,2022-045AL,52365,6917.849,95.437,541.652,537.775,0
